OBJECT_NAME,OBJECT_ID,EPOCH,MEAN_MOTION,ECCENTRICITY,INCLINATION,RA_OF_ASC_NODE,ARG_OF_PERICENTER,MEAN_ANOMALY,EPHEMERIS_TYPE,CLASSIFICATION_TYPE,NORAD_CAT_ID,ELEMENT_SET_NO,REV_AT_EPOCH,BSTAR,MEAN_MOTION_DOT,MEAN_MOTION_DDOT
COSMOS 2534 (758),2019-030A,2026-06-23T04:49:17.664096,2.13102283,.00134649,64.3690,192.4139,275.0352,157.6045,0,U,44299,999,5505,0,.95E-6,0
BEIDOU-3 IGSO-2 (C39),2019-035A,2026-06-23T20:41:38.697216,1.00264372,.00394231,55.2489,158.8038,216.4706,326.6444,0,U,44337,999,2573,0,-.62E-6,0
GPS BIII-2  (PRN 18),2019-056A,2026-06-23T20:49:29.050176,2.00570063,.00623165,55.6337,330.8764,197.6606,333.5530,0,U,44506,999,5020,0,-.103E-5,0
BEIDOU-3 M24 (C46),2019-061A,2026-06-22T14:41:16.365408,1.86229121,.00084477,54.3965,182.5445,358.6197,1.4065,0,U,44542,999,4589,0,.94E-6,0
BEIDOU-3 M23 (C45),2019-061B,2026-06-23T13:15:09.144288,1.86227312,.00058235,54.3954,182.4810,338.7823,203.1503,0,U,44543,999,4591,0,.102E-5,0
EUTELSAT 5 WEST B (EGNOS/PRN 121),2019-067A,2026-06-24T04:04:03.643968,1.00271152,.00033144,0.0618,0.0565,92.7711,235.5123,0,U,44624,999,2450,0,-.35E-6,0
BEIDOU-3 M22 (C44),2019-078A,2026-06-22T23:43:57.808992,1.86227077,.00062495,53.9301,299.6233,51.2109,308.8401,0,U,44793,999,4475,0,-.107E-5,0
BEIDOU-3 M21 (C43),2019-078B,2026-06-20T10:39:18.276192,1.86227692,.00039213,53.9054,299.6746,48.8810,311.1504,0,U,44794,999,4471,0,-.92E-6,0
COSMOS 2544 (759),2019-088A,2026-06-24T01:38:18.774240,2.13102868,.00129437,65.5696,73.5010,257.9602,101.9270,0,U,44850,999,5086,0,-.68E-6,0
BEIDOU-3 M19 (C41),2019-090A,2026-06-24T03:27:15.971904,1.86231464,.00176163,56.5651,62.5599,297.8463,220.1810,0,U,44864,999,4436,0,-.95E-6,0
BEIDOU-3 M20 (C42),2019-090B,2026-06-23T12:08:46.404960,1.86231503,.00153783,56.5662,62.6156,312.2472,227.7273,0,U,44865,999,4433,0,-.95E-6,0
BEIDOU-3 G2 (C60),2020-017A,2026-06-24T07:53:22.540704,1.00271948,.00023917,2.8791,47.4748,35.4850,27.9542,0,U,45344,999,2333,0,-.135E-5,0
COSMOS 2545 (760),2020-018A,2026-06-22T09:16:10.204608,2.13102349,.00085569,64.3519,312.2361,229.6925,130.2259,0,U,45358,999,4877,0,-.76E-6,0
BEIDOU-3 G3 (C61),2020-040A,2026-06-24T14:52:04.323936,1.00275719,.0002593,2.4657,67.5058,328.2392,210.5517,0,U,45807,999,2214,0,-.347E-5,0
GPS BIII-3  (PRN 23),2020-041A,2026-06-22T17:13:34.256640,2.00558666,.0064233,56.6735,28.7279,204.6080,154.4402,0,U,45854,999,4414,0,-.98E-6,0
GALAXY 30 (WAAS/PRN 135),2020-056C,2026-06-24T05:43:05.439360,1.00270568,.00022033,0.0116,48.6374,40.4727,144.0438,0,U,46114,999,2136,0,.44E-6,0
COSMOS 2547 (705K),2020-075A,2026-06-23T01:04:53.845824,2.13100075,.00093897,64.5998,192.2800,239.8936,120.0622,0,U,46805,999,4403,0,.94E-6,0
GPS BIII-4  (PRN 14),2020-078A,2026-06-23T17:59:20.054688,2.00565058,.00737348,53.9790,210.5121,207.4039,153.1814,0,U,46826,999,4164,0,.65E-6,0
GPS BIII-5  (PRN 11),2021-054A,2026-06-24T00:37:07.470624,2.00568788,.00256155,55.1708,332.1841,228.3259,158.0115,0,U,48859,999,3689,0,-.104E-5,0
QZS-1R (QZSS/PRN 196),2021-096A,2026-06-23T14:59:36.566592,1.00253892,.07552898,37.4749,79.4864,271.9239,278.8307,0,U,49336,999,1707,0,-.312E-5,0
GSAT0223 (GALILEO 27),2021-116A,2026-06-23T10:34:17.397696,1.70476308,.00016008,57.1590,341.5051,183.5383,174.0725,0,U,49809,999,2828,0,-.98E-6,0
GSAT0224 (GALILEO 28),2021-116B,2026-06-23T19:49:01.285248,1.70476382,.00013404,57.1589,341.4937,159.7817,186.8805,0,U,49810,999,2831,0,-.98E-6,0
COSMOS 2557 (706K),2022-075A,2026-06-22T06:29:57.729120,2.13102021,.00103034,64.2952,314.3058,273.7574,86.1177,0,U,52984,999,3082,0,-.76E-6,0
COSMOS 2559 (707K),2022-130A,2026-06-23T23:13:10.542432,2.13101758,.00126898,64.2668,314.3295,178.7252,181.2697,0,U,54031,999,2883,0,-.84E-6,0
COSMOS 2564 (761),2022-161A,2026-06-23T19:27:27.261216,2.13102094,.00122428,64.7423,192.4918,224.9828,134.9691,0,U,54377,999,2777,0,.101E-5,0
GPS BIII-6  (PRN 28),2023-009A,2026-06-23T22:30:16.394400,2.00571203,.00062524,55.1237,148.2534,317.3029,43.8164,0,U,55268,999,2538,0,.65E-6,0
BEIDOU-3 G4 (C62),2023-066A,2026-06-24T04:11:38.697216,1.00271993,.00046633,0.4786,333.3176,176.2332,325.7496,0,U,56564,999,1146,0,-.274E-5,0
NVS-01 (IRNSS-1J),2023-076A,2026-06-24T04:33:38.707776,1.00276054,.00028785,2.1490,244.0147,15.0340,211.2147,0,U,56759,999,1118,0,-.326E-5,0
COSMOS 2569 (703K),2023-114A,2026-06-21T22:42:15.534432,2.13103733,.00104833,65.3047,72.4599,296.8456,63.0820,0,U,57517,999,2236,0,-.57E-6,0
BEIDOU-3 M28 (C50),2023-207A,2026-06-23T04:56:22.265664,1.86229798,.00030713,55.7580,62.0998,351.0543,8.9757,0,U,58654,999,1695,0,-.95E-6,0
BEIDOU-3 M26 (C48),2023-207B,2026-06-23T00:04:45.969312,1.86229802,.00028471,55.7601,62.0932,321.8026,38.2128,0,U,58655,999,1693,0,-.94E-6,0
